CSS (TIANHE)            
1 48274U 21035A   24013.16816226  .00045383  00000+0  49073-3 0  9996
2 48274  41.4700 316.2531 0004609 102.9686 257.1669 15.62778559154679
